[{"OBJECT_NAME":"GAOFEN-3 02","OBJECT_ID":"2021-109A","EPOCH":"2026-03-09T23:26:55.915584","MEAN_MOTION":14.42215794,"ECCENTRICITY":0.00015915,"INCLINATION":98.4134,"RA_OF_ASC_NODE":78.4682,"ARG_OF_PERICENTER":307.7744,"MEAN_ANOMALY":52.3302,"EPHEMERIS_TYPE":0,"CLASSIFICATION_TYPE":"U","NORAD_CAT_ID":49495,"ELEMENT_SET_NO":999,"REV_AT_EPOCH":22601,"BSTAR":5.592981e-6,"MEAN_MOTION_DOT":-2.5e-7,"MEAN_MOTION_DDOT":0},{"OBJECT_NAME":"FENGYUN 1C DEB","OBJECT_ID":"1999-025LG","EPOCH":"2026-03-09T12:14:50.254368","MEAN_MOTION":14.67697961,"ECCENTRICITY":0.01210461,"INCLINATION":99.4046,"RA_OF_ASC_NODE":267.5239,"ARG_OF_PERICENTER":24.1926,"MEAN_ANOMALY":28.9506,"EPHEMERIS_TYPE":0,"CLASSIFICATION_TYPE":"U","NORAD_CAT_ID":29982,"ELEMENT_SET_NO":999,"REV_AT_EPOCH":1556,"BSTAR":0.00049805188,"MEAN_MOTION_DOT":3.096e-5,"MEAN_MOTION_DDOT":0}]
